{
  "original_analysis": {
    "covered_bins": 36,
    "total_bins": 36,
    "coverage_percent": 100.0,
    "distribution": {
      "9": 237,
      "7": 299,
      "11": 222,
      "5": 175,
      "6": 300,
      "34": 325,
      "8": 363,
      "10": 232,
      "13": 201,
      "12": 224,
      "22": 212,
      "24": 224,
      "25": 247,
      "20": 215,
      "21": 242,
      "23": 181,
      "4": 241,
      "18": 188,
      "16": 270,
      "17": 215,
      "19": 179,
      "15": 218,
      "29": 262,
      "27": 245,
      "31": 186,
      "26": 243,
      "28": 166,
      "3": 343,
      "1": 143,
      "33": 312,
      "35": 308,
      "32": 245,
      "30": 297,
      "14": 166,
      "0": 274,
      "2": 295
    },
    "total_satellites": 8695
  },
  "phase2_results": {
    "phase": "Phase 2 - Orbital Diversity Filtering",
    "input_count": 8695,
    "output_count": 500,
    "reduction_ratio": 0.05750431282346176,
    "selected_satellites": [
      {
        "OBJECT_NAME": "STARLINK-32589",
        "OBJECT_ID": "2024-225W",
        "EPOCH": "2025-07-31T20:56:30.039360",
        "MEAN_MOTION": 14.98350442,
        "ECCENTRICITY": 0.0002468,
        "INCLINATION": 70.0029,
        "RA_OF_ASC_NODE": 1.4175,
        "ARG_OF_PERICENTER": 274.1568,
        "MEAN_ANOMALY": 85.9309,
        "EPHEMERIS_TYPE": 0,
        "CLASSIFICATION_TYPE": "U",
        "NORAD_CAT_ID": 62183,
        "ELEMENT_SET_NO": 999,
        "REV_AT_EPOCH": 3679,
        "BSTAR": 0.00059003,
        "MEAN_MOTION_DOT": 6.958e-05,
        "MEAN_MOTION_DDOT": 0,
        "constellation": "starlink",
        "quality_scores": {
          "orbital_stability": 21.684631933333335,
          "coverage_uniformity": 20,
          "handover_frequency": 15.1575,
          "signal_quality": 25,
          "total_score": 81.84213193333333
        }
      },
      {
        "OBJECT_NAME": "STARLINK-5328",
        "OBJECT_ID": "2023-021AF",
        "EPOCH": "2025-07-31T20:50:29.401440",
        "MEAN_MOTION": 14.98329771,
        "ECCENTRICITY": 0.0003026,
        "INCLINATION": 70.0015,
        "RA_OF_ASC_NODE": 1.3855,
        "ARG_OF_PERICENTER": 266.2604,
        "MEAN_ANOMALY": 93.8209,
        "EPHEMERIS_TYPE": 0,
        "CLASSIFICATION_TYPE": "U",
        "NORAD_CAT_ID": 55657,
        "ELEMENT_SET_NO": 999,
        "REV_AT_EPOCH": 13620,
        "BSTAR": -1.9391e-06,
        "MEAN_MOTION_DOT": -1.16e-06,
        "MEAN_MOTION_DDOT": 0,
        "constellation": "starlink",
        "quality_scores": {
          "orbital_stability": 21.676950966666666,
          "coverage_uniformity": 20,
          "handover_frequency": 15.153944444444445,
          "signal_quality": 25,
          "total_score": 81.83089541111111
        }
      },
      {
        "OBJECT_NAME": "STARLINK-32516",
        "OBJECT_ID": "2024-225P",
        "EPOCH": "2025-07-31T20:32:41.455968",
        "MEAN_MOTION": 14.98340972,
        "ECCENTRICITY": 0.000288,
        "INCLINATION": 70.0032,
        "RA_OF_ASC_NODE": 1.3607,
        "ARG_OF_PERICENTER": 264.4702,
        "MEAN_ANOMALY": 95.6128,
        "EPHEMERIS_TYPE": 0,
        "CLASSIFICATION_TYPE": "U",
        "NORAD_CAT_ID": 62176,
        "ELEMENT_SET_NO": 999,
        "REV_AT_EPOCH": 3679,
        "BSTAR": 0.000311,
        "MEAN_MOTION_DOT": 3.621e-05,
        "MEAN_MOTION_DDOT": 0,
        "constellation": "starlink",
        "quality_scores": {
          "orbital_stability": 21.6787676,
          "coverage_uniformity": 20,
          "handover_frequency": 15.151188888888889,
          "signal_quality": 25,
          "total_score": 81.82995648888888
        }
      },
      {
        "OBJECT_NAME": "STARLINK-5477",
        "OBJECT_ID": "2023-021AH",
        "EPOCH": "2025-07-31T20:44:28.493088",
        "MEAN_MOTION": 14.98332085,
        "ECCENTRICITY": 0.0002996,
        "INCLINATION": 70.0014,
        "RA_OF_ASC_NODE": 1.372,
        "ARG_OF_PERICENTER": 266.9543,
        "MEAN_ANOMALY": 93.1273,
        "EPHEMERIS_TYPE": 0,
        "CLASSIFICATION_TYPE": "U",
        "NORAD_CAT_ID": 55659,
        "ELEMENT_SET_NO": 999,
        "REV_AT_EPOCH": 13619,
        "BSTAR": 1.0843e-05,
        "MEAN_MOTION_DOT": 3.6e-07,
        "MEAN_MOTION_DDOT": 0,
        "constellation": "starlink",
        "quality_scores": {
          "orbital_stability": 21.677323833333332,
          "coverage_uniformity": 20,
          "handover_frequency": 15.152444444444445,
          "signal_quality": 25,
          "total_score": 81.82976827777777
        }
      },
      {
        "OBJECT_NAME": "STARLINK-32534",
        "OBJECT_ID": "2024-225N",
        "EPOCH": "2025-07-31T20:44:42.779328",
        "MEAN_MOTION": 14.9833848,
        "ECCENTRICITY": 0.0003185,
        "INCLINATION": 70.0029,
        "RA_OF_ASC_NODE": 1.3898,
        "ARG_OF_PERICENTER": 268.7253,
        "MEAN_ANOMALY": 91.3541,
        "EPHEMERIS_TYPE": 0,
        "CLASSIFICATION_TYPE": "U",
        "NORAD_CAT_ID": 62175,
        "ELEMENT_SET_NO": 999,
        "REV_AT_EPOCH": 3679,
        "BSTAR": 0.00031647,
        "MEAN_MOTION_DOT": 3.686e-05,
        "MEAN_MOTION_DDOT": 0,
        "constellation": "starlink",
        "quality_scores": {
          "orbital_stability": 21.674275666666666,
          "coverage_uniformity": 20,
          "handover_frequency": 15.154422222222221,
          "signal_quality": 25,
          "total_score": 81.82869788888888
        }
      },
      {
        "OBJECT_NAME": "STARLINK-32565",
        "OBJECT_ID": "2024-225V",
        "EPOCH": "2025-07-31T17:44:25.922688",
        "MEAN_MOTION": 14.98338071,
        "ECCENTRICITY": 0.0002991,
        "INCLINATION": 70.003,
        "RA_OF_ASC_NODE": 1.3576,
        "ARG_OF_PERICENTER": 273.8819,
        "MEAN_ANOMALY": 86.1998,
        "EPHEMERIS_TYPE": 0,
        "CLASSIFICATION_TYPE": "U",
        "NORAD_CAT_ID": 62182,
        "ELEMENT_SET_NO": 999,
        "REV_AT_EPOCH": 3678,
        "BSTAR": 0.00033664,
        "MEAN_MOTION_DOT": 3.927e-05,
        "MEAN_MOTION_DDOT": 0,
        "constellation": "starlink",
        "quality_scores": {
          "orbital_stability": 21.677199299999998,
          "coverage_uniformity": 20,
          "handover_frequency": 15.150844444444445,
          "signal_quality": 25,
          "total_score": 81.82804374444444
        }
      }