STARLINK-5328           
1 55657U 23021AF  25212.86839585 -.00000116  00000+0 -19391-5 0  9997
2 55657  70.0015   1.3855 0003026 266.2604  93.8209 14.98329771136206
STARLINK-5477           
1 55659U 23021AH  25212.86421867  .00000036  00000+0  10843-4 0  9990
2 55659  70.0014   1.3720 0002996 266.9543  93.1273 14.98332085136196
STARLINK-32534          
1 62175U 24225N   25212.86438402  .00003686  00000+0  31647-3 0  9999
2 62175  70.0029   1.3898 0003185 268.7253  91.3541 14.98338480 36796
STARLINK-32516          
1 62176U 24225P   25212.85603537  .00003621  00000+0  31100-3 0  9995
2 62176  70.0032   1.3607 0002880 264.4702  95.6128 14.98340972 36799
STARLINK-32565          
1 62182U 24225V   25212.73918892  .00003927  00000+0  33664-3 0  9998
2 62182  70.0030   1.3576 0002991 273.8819  86.1998 14.98338071 36781
STARLINK-32589          
1 62183U 24225W   25212.87256990  .00006958  00000+0  59003-3 0  9990
2 62183  70.0029   1.4175 0002468 274.1568  85.9309 14.98350442 36790
